outfall_id,receiving_waterway,events_06,volume_06,volume_13,events_13,volume_14,events_14,events_15,volume_15,events_16,volume_16,discharge_activation_type,facility,spdes_id,X,Y,latitude,longtitude,location
26-001,Hendrix Canal,,,,,,,,,,,Model,NYCDEP - 26th Ward,NY0026212-001,-73.87688,40.65072,40.65072,-73.87688,"(40.65072, -73.87688)"
26-002,Hendrix Street Canal,,,,,,,,,,,Model,NYCDEP - 26th Ward,NY0026212-002,-73.876834,40.650658,40.650658,-73.876834,"(40.650658, -73.876834)"
26-003,Fresh Creek Basin,47,494,114,8,255,17,9,97,20,263,Monitoring,NYCDEP - 26th Ward,NY0026212-003,-73.890436,40.649287,40.649287,-73.890436,"(40.649287, -73.890436)"
26-004,Fresh Creek Basin,16,36,39,12,58,19,15,35,27,76,Monitoring,NYCDEP - 26th Ward,NY0026212-004,-73.879673,40.654431,40.654431,-73.879673,"(40.654431, -73.879673)"
26-005,Spring Creek,5,98,100,1,334,5,1,54,5,170,Monitoring,NYCDEP - 26th Ward,NY0026212-005,-73.862326,40.657796,40.657796,-73.862326,"(40.657796, -73.862326)"
BB-001,Bowery Bay,,,,,,,,,,,Model,NYCDEP - Bowery Bay WPCP,NY0026158-001,-73.891883,40.780914,40.780914,-73.891883,"(40.780914, -73.891883)"
BB-002,Rikers Island Channel,,988,71,28,98,47,51,129,49,298,Model,NYCDEP - Bowery Bay WPCP,NY0026158-002,-73.892491,40.779511,40.779511,-73.892491,"(40.779511, -73.892491)"
BB-003,Bowery Bay,,54,26,28,41,31,29,24,29,29,Model,NYCDEP - Bowery Bay WPCP,NY0026158-003,-73.889714,40.776428,40.776428,-73.889714,"(40.776428, -73.889714)"
BB-004,Dutch Kills,4,0,0,2,0,4,1,0,0,0,Monitoring,NYCDEP - Bowery Bay WPCP,NY0026158-004,-73.942061,40.739096,40.739096,-73.942061,"(40.739096, -73.942061)"
BB-005,Flushing Bay,,1520,708,51,998,63,61,679,60,527,Model,NYCDEP - Bowery Bay WPCP,NY0026158-005,-73.889351,40.77355,40.77355,-73.889351,"(40.77355, -73.889351)"
BB-006,Flushing Bay,,1434,827,48,1196,59,53,816,53,649,Model,NYCDEP - Bowery Bay WPCP,NY0026158-006,-73.854593,40.760166,40.760166,-73.854593,"(40.760166, -73.854593)"
BB-007,Flushing Bay,,3,1,12,3,16,10,1,45,102,Model,NYCDEP - Bowery Bay WPCP,NY0026158-007,-73.862182,40.765985,40.765985,-73.862182,"(40.765985, -73.862182)"
BB-008,Flushing Bay,,534,449,48,582,57,51,426,48,292,Model,NYCDEP - Bowery Bay WPCP,NY0026158-008,-73.859005,40.762469,40.762469,-73.859005,"(40.762469, -73.859005)"
BB-009,Dutch Kills,35,35,57,32,127,39,31,30,34,41,Model,NYCDEP - Bowery Bay WPCP,NY0026158-009,-73.940311,40.740784,40.740784,-73.940311,"(40.740784, -73.940311)"
BB-010,Dutch Kills,16,2,1,11,2,15,7,0,6,0,Model,NYCDEP - Bowery Bay WPCP,NY0026158-010,-73.941434,40.739439,40.739439,-73.941434,"(40.739439, -73.941434)"
BB-011,Newtown Creek,24,3,2,18,4,20,17,1,16,1,Model,NYCDEP - Bowery Bay WPCP,NY0026158-011,-73.940056,40.733631,40.733631,-73.940056,"(40.733631, -73.940056)"
BB-012,Newtown Creek,5,0,0,2,0,5,2,0,1,0,Model,NYCDEP - Bowery Bay WPCP,NY0026158-012,-73.940398,40.734314,40.734314,-73.940398,"(40.734314, -73.940398)"
BB-013,Newtown Creek,44,39,20,33,25,34,35,18,32,15,Model,NYCDEP - Bowery Bay WPCP,NY0026158-013,-73.952754,40.73962,40.73962,-73.952754,"(40.73962, -73.952754)"
BB-014,Newtown Creek,35,3,2,28,3,29,28,2,24,2,Model,NYCDEP - Bowery Bay WPCP,NY0026158-014,-73.954983,40.739793,40.739793,-73.954983,"(40.739793, -73.954983)"
BB-015,Newtown Creek,39,3,2,30,2,33,33,2,27,1,Model,NYCDEP - Bowery Bay WPCP,NY0026158-015,-73.957651,40.739435,40.739435,-73.957651,"(40.739435, -73.957651)"
BB-016,East River,,2,2,27,3,26,27,2,23,2,Model,NYCDEP - Bowery Bay WPCP,NY0026158-016,-73.96089,40.743158,40.743158,-73.96089,"(40.743158, -73.96089)"
BB-017,East River,,2,1,23,2,28,22,1,27,1,Model,NYCDEP - Bowery Bay WPCP,NY0026158-017,-73.959689,40.7438,40.7438,-73.959689,"(40.7438, -73.959689)"
BB-018,East River,,2,1,21,1,21,21,1,18,0,Model,NYCDEP - Bowery Bay WPCP,NY0026158-018,-73.959004,40.744421,40.744421,-73.959004,"(40.744421, -73.959004)"
BB-021,East River,,31,19,31,29,36,35,17,33,16,Model,NYCDEP - Bowery Bay WPCP,NY0026158-021,-73.958752,40.746576,40.746576,-73.958752,"(40.746576, -73.958752)"
BB-022,East River,,2,1,28,2,18,28,1,18,1,Model,NYCDEP - Bowery Bay WPCP,NY0026158-022,-73.954832,40.748041,40.748041,-73.954832,"(40.748041, -73.954832)"
BB-023,East River,,27,15,31,21,33,30,14,26,13,Model,NYCDEP - Bowery Bay WPCP,NY0026158-023,-73.955992,40.749765,40.749765,-73.955992,"(40.749765, -73.955992)"
BB-024,East River,,97,30,31,48,32,34,27,25,25,Model,NYCDEP - Bowery Bay WPCP,NY0026158-024,-73.952033,40.75381,40.75381,-73.952033,"(40.75381, -73.952033)"
BB-025,East River,,18,8,27,13,29,31,7,27,7,Model,NYCDEP - Bowery Bay WPCP,NY0026158-025,-73.949047,40.75745,40.75745,-73.949047,"(40.75745, -73.949047)"
BB-026,Dutch Kills,47,187,170,37,197,42,35,104,38,95,Model,NYCDEP - Bowery Bay WPCP,NY0026158-026,-73.939278,40.743067,40.743067,-73.939278,"(40.743067, -73.939278)"
BB-027,East River,,8,5,28,8,25,31,4,27,4,Model,NYCDEP - Bowery Bay WPCP,NY0026158-027,-73.947763,40.759045,40.759045,-73.947763,"(40.759045, -73.947763)"
BB-028,East River,,456,285,41,417,44,47,260,40,263,Model,NYCDEP - Bowery Bay WPCP,NY0026158-028,-73.945683,40.76152,40.76152,-73.945683,"(40.76152, -73.945683)"
BB-029,East River,,180,77,30,125,27,32,65,26,75,Model,NYCDEP - Bowery Bay WPCP,NY0026158-029,-73.937797,40.768592,40.768592,-73.937797,"(40.768592, -73.937797)"
BB-030,East River,,19,12,44,17,45,48,11,45,21,Model,NYCDEP - Bowery Bay WPCP,NY0026158-030,-73.934921,40.771194,40.771194,-73.934921,"(40.771194, -73.934921)"
BB-031,East River,,22,22,34,33,44,36,19,17,3,unknown,NYCDEP - Bowery Bay WPCP,NY0026158-031,-73.93476666,40.77158407,40.77158407,-73.93476666,"(40.7715840719217, -73.9347666624325)"
BB-032,East River,,3,1,27,4,36,33,1,16,1,Model,NYCDEP - Bowery Bay WPCP,NY0026158-032,-73.937787,40.774317,40.774317,-73.937787,"(40.774317, -73.937787)"
BB-033,East River,,9,5,29,7,33,28,4,30,4,Model,NYCDEP - Bowery Bay WPCP,NY0026158-033,-73.937075,40.775879,40.775879,-73.937075,"(40.775879, -73.937075)"
BB-034,East River,,223,162,46,231,60,55,151,53,153,Model,NYCDEP - Bowery Bay WPCP,NY0026158-034,-73.92824,40.776954,40.776954,-73.92824,"(40.776954, -73.92824)"
BB-035,East River,,4,3,29,4,26,29,2,31,3,Model,NYCDEP - Bowery Bay WPCP,NY0026158-035,-73.919963,40.782651,40.782651,-73.919963,"(40.782651, -73.919963)"
BB-036,East River,,10,5,25,8,23,27,4,30,6,Model,NYCDEP - Bowery Bay WPCP,NY0026158-036,-73.91726,40.784186,40.784186,-73.91726,"(40.784186, -73.91726)"
BB-037,East River,,1,0,8,0,10,6,0,8,0,Model,NYCDEP - Bowery Bay WPCP,NY0026158-037,-73.915523,40.786129,40.786129,-73.915523,"(40.786129, -73.915523)"
BB-038,East River,,10,88,30,6,32,29,87,,,unknown,NYCDEP - Bowery Bay WPCP,NY0026158-038,-73.91542957,40.78658195,40.78658195,-73.91542957,"(40.7865819532586, -73.9154295681671)"
BB-040,Dutch Kills,21,1,2,19,3,24,19,1,24,2,Model,NYCDEP - Bowery Bay WPCP,NY0026158-040,-73.940817,40.740937,40.740937,-73.940817,"(40.740937, -73.940817)"
BB-041,Rikers Island Channel,,126,64,47,84,55,51,60,45,74,Model,NYCDEP - Bowery Bay WPCP,NY0026158-041,-73.90226,40.780266,40.780266,-73.90226,"(40.780266, -73.90226)"
BB-042,Dutch Kills,29,2,3,28,4,32,28,2,26,2,Model,NYCDEP - Bowery Bay WPCP,NY0026158-042,-73.943128,40.738948,40.738948,-73.943128,"(40.738948, -73.943128)"
BB-043,Newtown Creek,40,14,9,32,14,35,35,8,33,8,Model,NYCDEP - Bowery Bay WPCP,NY0026158-043,-73.952275,40.739509,40.739509,-73.952275,"(40.739509, -73.952275)"
BB-045,East River,,0,0,0,0,1,0,0,0,0,Model,NYCDEP - Bowery Bay WPCP,NY0026158-045,-73.929834,40.776178,40.776178,-73.929834,"(40.776178, -73.929834)"
BB-046,East River,,8,6,29,8,33,30,5,31,5,unknown,NYCDEP - Bowery Bay WPCP,NY0026158-046,-73.93268189,40.77800277,40.77800277,-73.93268189,"(40.7780027675881, -73.9326818929032)"
BB-047,East River,,2,2,22,2,25,20,1,26,1,unknown,NYCDEP - Bowery Bay WPCP,NY0026158-047,-73.93774611,40.77441845,40.77441845,-73.93774611,"(40.7744184488488, -73.9377461096872)"
BB-053,Hellgate (E),,,,,,,,,,,Monitoring,NYCDEP - Bowery Bay WPCP,NY0026158-053,-73.915344,40.786116,40.786116,-73.915344,"(40.786116, -73.915344)"
BB-054,East River - East Channel,,,,,,,,,,,Model,NYCDEP - Bowery Bay WPCP,NY0026158-054,-73.942189,40.768766,40.768766,-73.942189,"(40.768766, -73.942189)"
BB-055,East River - East Channel,,,,,,,,,,,Model,NYCDEP - Bowery Bay WPCP,NY0026158-055,-73.944952,40.765728,40.765728,-73.944952,"(40.765728, -73.944952)"
BB-056,East River - East Channel,,,,,,,,,,,Model,NYCDEP - Bowery Bay WPCP,NY0026158-056,-73.957157,40.752779,40.752779,-73.957157,"(40.752779, -73.957157)"
CI-004,Paerdegat Basin,61,1210,0,2,25,2,8,19,1,2,Monitoring,NYCDEP - Coney Island WPCP,NY0026182-004,-73.917471,40.631578,40.631578,-73.917471,"(40.631578, -73.917471)"
CI-005,Paerdegat Basin,61,973,0,0,32,15,2,23,4,5,Monitoring,NYCDEP - Coney Island WPCP,NY0026182-005,-73.917037,40.631845,40.631845,-73.917037,"(40.631845, -73.917037)"
CI-006,Paerdegat Basin,,566,0,0,18,3,29,14,1,3,Monitoring,NYCDEP - Coney Island WPCP,NY0026182-006,-73.917227,40.630958,40.630958,-73.917227,"(40.630958, -73.917227)"
HP-001,East River,,,,,,,,,,,Model,NYCDEP - Hunt's Point WPCP,NY0026191-001,-73.882468,40.802284,40.802284,-73.882468,"(40.802284, -73.882468)"
HP-002,East River,,119,36,47,66,38,29,34,47,35,Monitoring,NYCDEP - Hunt's Point WPCP,NY0026191-002,-73.889828,40.805224,40.805224,-73.889828,"(40.805224, -73.889828)"
HP-003,East River,,359,193,50,253,35,35,176,39,153,Monitoring,NYCDEP - Hunt's Point WPCP,NY0026191-003,-73.874772,40.801264,40.801264,-73.874772,"(40.801264, -73.874772)"
HP-004,Bronx River,56,100,17,26,38,20,18,17,20,20,Model,NYCDEP - Hunt's Point WPCP,NY0026191-004,-73.879339,40.83826,40.83826,-73.879339,"(40.83826, -73.879339)"
HP-005,Hutchinson River,,0,,,,,,,,,Model,NYCDEP - Hunt's Point WPCP,NY0026191-005,-73.820426,40.886835,40.886835,-73.820426,"(40.886835, -73.820426)"
HP-006,Eastchester Bay,,0,,,,,,,,,Model,NYCDEP - Hunt's Point WPCP,NY0026191-006,-73.821784,40.868831,40.868831,-73.821784,"(40.868831, -73.821784)"
HP-007,Bronx River,21,88,78,23,155,21,10,27,11,28,Model,NYCDEP - Hunt's Point WPCP,NY0026191-007,-73.87864,40.83899,40.83899,-73.87864,"(40.83899, -73.87864)"
HP-008,Bronx River,17,4,3,26,9,21,2,1,4,1,Model,NYCDEP - Hunt's Point WPCP,NY0026191-008,-73.881411,40.818958,40.818958,-73.881411,"(40.818958, -73.881411)"
HP-009,East River,51,814,460,50,551,37,38,321,41,273,Monitoring,NYCDEP - Hunt's Point WPCP,NY0026191-009,-73.870733,40.814488,40.814488,-73.870733,"(40.814488, -73.870733)"
HP-010,Bronx River,1,1,0,0,3,2,0,0,1,0,Model,NYCDEP - Hunt's Point WPCP,NY0026191-010,-73.869759,40.813414,40.813414,-73.869759,"(40.813414, -73.869759)"
HP-011,East River,,828,310,65,376,46,46,272,51,191,Monitoring,NYCDEP - Hunt's Point WPCP,NY0026191-011,-73.854165,40.80448,40.80448,-73.854165,"(40.80448, -73.854165)"
HP-012,Westchester Creek,,27,27,15,59,16,10,24,11,27,Model,NYCDEP - Hunt's Point WPCP,NY0026191-012,-73.840977,40.82432,40.82432,-73.840977,"(40.82432, -73.840977)"
HP-013,Pugsley Creek,54,144,155,26,246,31,22,130,21,135,Model,NYCDEP - Hunt's Point WPCP,NY0026191-013,-73.853002,40.813788,40.813788,-73.853002,"(40.813788, -73.853002)"
HP-014,Westchester Creek,,516,449,53,616,44,44,420,46,385,Model,NYCDEP - Hunt's Point WPCP,NY0026191-014,-73.840058,40.839542,40.839542,-73.840058,"(40.839542, -73.840058)"
HP-015,Westchester Creek,2,0,0,1,1,4,2,0,4,0,Model,NYCDEP - Hunt's Point WPCP,NY0026191-015,-73.839303,40.837294,40.837294,-73.839303,"(40.837294, -73.839303)"
HP-016,Westchester Creek,24,72,63,46,90,28,30,56,27,48,Monitoring,NYCDEP - Hunt's Point WPCP,NY0026191-016,-73.84222,40.828342,40.828342,-73.84222,"(40.828342, -73.84222)"
HP-017,East River,,35,50,60,66,36,35,47,38,36,Monitoring,NYCDEP - Hunt's Point WPCP,NY0026191-017,-73.826432,40.811459,40.811459,-73.826432,"(40.811459, -73.826432)"
HP-018,East River,,2,4,37,5,24,16,2,18,2,Monitoring,NYCDEP - Hunt's Point WPCP,NY0026191-018,-73.82464646,40.812057,40.811894,-73.824571,"(40.811894, -73.824571)"
HP-019,East River,,18,14,49,19,31,30,12,32,11,Monitoring,NYCDEP - Hunt's Point WPCP,NY0026191-019,-73.816936,40.81374,40.81374,-73.816936,"(40.81374, -73.816936)"
HP-020,East River,,0,0,12,0,2,0,0,1,0,Model,NYCDEP - Hunt's Point WPCP,NY0026191-020,-73.81101674,40.81305096,40.812894,-73.811059,"(40.812894, -73.811059)"
HP-021,East River,,298,250,63,296,42,47,243,47,198,Monitoring,NYCDEP - Hunt's Point WPCP,NY0026191-021,-73.803847,40.808511,40.808511,-73.803847,"(40.808511, -73.803847)"
HP-022,Eastchester Bay,,31,32,49,43,33,28,29,31,23,Monitoring,NYCDEP - Hunt's Point WPCP,NY0026191-022,-73.79810415,40.81585918,40.815666,-73.797754,"(40.815666, -73.797754)"
HP-023,Hutchinson River,,115,161,65,210,42,42,157,49,134,Model,NYCDEP - Hunt's Point WPCP,NY0026191-023,-73.821426,40.880442,40.880442,-73.821426,"(40.880442, -73.821426)"
HP-024,Hutchinson River,,254,177,43,259,39,34,159,43,159,Model,NYCDEP - Hunt's Point WPCP,NY0026191-024,-73.824326,40.887805,40.887805,-73.824326,"(40.887805, -73.824326)"
HP-025,East River,,130,84,74,118,48,47,79,56,74,Monitoring,NYCDEP - Hunt's Point WPCP,NY0026191-025,-73.892023,40.806386,40.806386,-73.892023,"(40.806386, -73.892023)"
HP-026,East River,,79,46,30,90,30,24,40,24,46,Monitoring,NYCDEP - Hunt's Point WPCP,NY0026191-026,-73.813915,40.824069,40.824069,-73.813915,"(40.824069, -73.813915)"
HP-028,Eastchester Bay,,,,,,,,,,,Model,NYCDEP - Hunt's Point WPCP,NY0026191-028,-73.816645,40.844128,40.844128,-73.816645,"(40.844128, -73.816645)"
HP-029,Eastchester Bay,,4,4,34,4,33,26,3,27,3,Model,NYCDEP - Hunt's Point WPCP,NY0026191-029,-73.815786,40.848635,40.848635,-73.815786,"(40.848635, -73.815786)"
HP-031,Hutchinson River,,83,18,44,26,35,30,16,41,16,Model,NYCDEP - Hunt's Point WPCP,NY0026191-031,-73.823608,40.873797,40.873797,-73.823608,"(40.873797, -73.823608)"
HP-032,East River,,,,,,,,,,,Model,NYCDEP - Hunt's Point WPCP,NY0026191-032,-73.886212,40.797506,40.797506,-73.886212,"(40.797506, -73.886212)"
HP-033,Westchester Creek,5,78,6,7,23,10,5,7,5,11,Model,NYCDEP - Hunt's Point WPCP,NY0026191-033,-73.842681,40.827985,40.827985,-73.842681,"(40.827985, -73.842681)"
HP-034,Westchester Creek,,0,,,,,,,,,Model,NYCDEP - Hunt's Point WPCP,NY0026191-034,-73.839619,40.834936,40.834936,-73.839619,"(40.834936, -73.839619)"
HP-036,Long Island Sound,,0,,,,,,,,,Model,NYCDEP - Hunt's Point WPCP,NY0026191-036,-73.782604,40.845723,40.845723,-73.782604,"(40.845723, -73.782604)"
HP-037,Shore Road Lagoon,,0,,,,,,,,,Model,NYCDEP - Hunt's Point WPCP,NY0026191-037,-73.801464,40.866847,40.866847,-73.801464,"(40.866847, -73.801464)"
HP-039,EAST RIVER,,,,,,,,,,,Model,NYCDEP - Hunt's Point WPCP,NY0026191-039,-73.869875,40.804181,40.804181,-73.869875,"(40.804181, -73.869875)"
JA-003,Bergen Basin,47,319,909,65,877,55,35,257,46,271,Monitoring,NYCDEP - Jamaica WPCP,NY0026115-003,-73.818644,40.662121,40.662121,-73.818644,"(40.662121, -73.818644)"
JA-003A,Bergen Basin,57,300,0,0,0,0,46,266,50,235,Monitoring,NYCDEP - Jamaica WPCP,NY0026115-003A,-73.818507,40.662104,40.662104,-73.818507,"(40.662104, -73.818507)"
JA-005,Thurston Basin,55,908,1116,57,0,0,53,1131,51,307,Monitoring,NYCDEP - Jamaica WPCP,NY0026115-005,-73.75491,40.647621,40.647621,-73.75491,"(40.647621, -73.75491)"
JA-006,Bergen Basin,61,30,0,0,0,0,12,4,45,17,Monitoring,NYCDEP - Jamaica WPCP,NY0026115-006,-73.811241,40.660485,40.660485,-73.811241,"(40.660485, -73.811241)"
JA-007,Bergen Basin,,,39,39,,,,,,,Monitoring,NYCDEP - Jamaica WPCP,NY0026115-007,-73.754635,40.647874,40.647874,-73.754635,"(40.647874, -73.754635)"
NC-002,Wahle Creek,,,,,,,,,,,Model,NYCDEP - Newtown Creek WPCP,NY0026204-002,-73.946695,40.734433,40.734433,-73.946695,"(40.734433, -73.946695)"
NC-003,East River,,1,0,12,1,12,11,0,15,0,Model,NYCDEP - Newtown Creek WPCP,NY0026204-003,-73.961212,40.7295,40.7295,-73.961212,"(40.7295, -73.961212)"
NC-004,East River,,18,16,36,21,39,37,13,38,13,Model,NYCDEP - Newtown Creek WPCP,NY0026204-004,-73.961665,40.725871,40.725871,-73.961665,"(40.725871, -73.961665)"
NC-005,East River,,79,53,44,54,39,53,38,45,34,Model,NYCDEP - Newtown Creek WPCP,NY0026204-005,-73.955714,40.76102,40.76102,-73.955714,"(40.76102, -73.955714)"
NC-006,East River,,104,94,14,129,21,16,73,44,68,Monitoring,NYCDEP - Newtown Creek WPCP,NY0026204-006,-73.962117,40.725204,40.725204,-73.962117,"(40.725204, -73.962117)"
NC-007,East River,,9,7,34,9,27,32,6,37,6,Model,NYCDEP - Newtown Creek WPCP,NY0026204-007,-73.9644,40.720125,40.720125,-73.9644,"(40.720125, -73.9644)"
NC-008,East River,,27,21,35,29,30,35,17,38,16,Model,NYCDEP - Newtown Creek WPCP,NY0026204-008,-73.966076,40.718336,40.718336,-73.966076,"(40.718336, -73.966076)"
NC-010,East River,,0,0,1,0,0,1,0,1,0,Model,NYCDEP - Newtown Creek WPCP,NY0026204-010,-73.967232,40.716524,40.716524,-73.967232,"(40.716524, -73.967232)"
NC-011,East River,,0,0,0,0,0,0,0,0,0,Model,NYCDEP - Newtown Creek WPCP,NY0026204-011,-73.964766,40.751677,40.751677,-73.964766,"(40.751677, -73.964766)"
NC-012,East River,,27,36,23,52,25,20,28,27,24,Monitoring,NYCDEP - Newtown Creek WPCP,NY0026204-012,-73.968468,40.712846,40.712846,-73.968468,"(40.712846, -73.968468)"
NC-013,East River,,42,49,30,75,26,21,45,34,39,Monitoring,NYCDEP - Newtown Creek WPCP,NY0026204-013,-73.969315,40.707094,40.707094,-73.969315,"(40.707094, -73.969315)"
NC-014,Wallabout Bay,,337,418,26,568,27,27,600,30,511,Monitoring,NYCDEP - Newtown Creek WPCP,NY0026204-014,-73.969288,40.705196,40.705196,-73.969288,"(40.705196, -73.969288)"
NC-015,English Kills,33,308,438,35,587,34,33,102,37,229,Monitoring,NYCDEP - Newtown Creek WPCP,NY0026204-015,-73.930411,40.708705,40.708705,-73.930411,"(40.708705, -73.930411)"
NC-016,East River,,4,3,16,2,12,15,1,9,1,Model,NYCDEP - Newtown Creek WPCP,NY0026204-016,-73.96584,40.750479,40.750479,-73.96584,"(40.750479, -73.96584)"
NC-017,East River,,0,0,0,0,0,0,0,0,0,Model,NYCDEP - Newtown Creek WPCP,NY0026204-017,-73.96782,40.748024,40.748024,-73.96782,"(40.748024, -73.96782)"
NC-018,East River,,14,14,42,14,40,56,10,43,9,Model,NYCDEP - Newtown Creek WPCP,NY0026204-018,-73.968474,40.747337,40.747337,-73.968474,"(40.747337, -73.968474)"
NC-019,East River,7,0,2,19,3,20,18,2,27,2,Model,NYCDEP - Newtown Creek WPCP,NY0026204-019,-73.923912,40.714098,40.714098,-73.923912,"(40.714098, -73.923912)"
NC-020,Newtown Creek,,4,14,32,16,26,27,7,32,11,Model,NYCDEP - Newtown Creek WPCP,NY0026204-020,-73.973597,40.71853,40.71853,-73.973597,"(40.71853, -73.973597)"
NC-021,East River,,0,1,3,1,3,1,0,3,0,Model,NYCDEP - Newtown Creek WPCP,NY0026204-021,-73.952671,40.738881,40.738881,-73.952671,"(40.738881, -73.952671)"
NC-022,Newtown Creek,42,8,8,41,10,30,40,6,42,5,Model,NYCDEP - Newtown Creek WPCP,NY0026204-022,-73.952919,40.738931,40.738931,-73.952919,"(40.738931, -73.952919)"
NC-023,Newtown Creek,5,0,1,9,1,7,8,0,8,0,Model,NYCDEP - Newtown Creek WPCP,NY0026204-023,-73.959978,40.736892,40.736892,-73.959978,"(40.736892, -73.959978)"
NC-024,Newtown Creek,0,0,0,2,0,0,0,0,1,0,Model,NYCDEP - Newtown Creek WPCP,NY0026204-024,-73.961039,40.735768,40.735768,-73.961039,"(40.735768, -73.961039)"
NC-025,East River,,1,1,11,1,13,11,0,15,0,Model,NYCDEP - Newtown Creek WPCP,NY0026204-025,-73.962342,40.733755,40.733755,-73.962342,"(40.733755, -73.962342)"
NC-026,East River,,0,0,10,0,10,7,0,8,0,Model,NYCDEP - Newtown Creek WPCP,NY0026204-026,-73.962305,40.733034,40.733034,-73.962305,"(40.733034, -73.962305)"
NC-027,East River,,24,20,35,28,32,33,14,37,8,Model,NYCDEP - Newtown Creek WPCP,NY0026204-027,-73.962099,40.732308,40.732308,-73.962099,"(40.732308, -73.962099)"
NC-028,East River,,0,0,0,0,2,0,0,1,0,Model,NYCDEP - Newtown Creek WPCP,NY0026204-028,-73.975015,40.714885,40.714885,-73.975015,"(40.714885, -73.975015)"
NC-029,East River,48,18,30,43,34,47,45,18,46,17,Model,NYCDEP - Newtown Creek WPCP,NY0026204-029,-73.927287,40.726529,40.726529,-73.927287,"(40.726529, -73.927287)"
NC-030,East River,,0,0,17,0,17,14,0,11,0,Model,NYCDEP - Newtown Creek WPCP,NY0026204-030,-73.951784,40.765146,40.765146,-73.951784,"(40.765146, -73.951784)"
NC-031,East River,,1,4,30,5,26,26,2,30,3,Model,NYCDEP - Newtown Creek WPCP,NY0026204-031,-73.952349,40.764524,40.764524,-73.952349,"(40.764524, -73.952349)"
NC-032,East River,,6,4,15,3,9,10,2,3,1,Monitoring,NYCDEP - Newtown Creek WPCP,NY0026204-032,-73.957456,40.75944,40.75944,-73.957456,"(40.75944, -73.957456)"
NC-033,East River,,1,1,9,1,10,6,0,8,0,Model,NYCDEP - Newtown Creek WPCP,NY0026204-033,-73.95986,40.756956,40.756956,-73.95986,"(40.756956, -73.95986)"
NC-034,East River,,0,2,10,2,10,7,1,7,1,Model,NYCDEP - Newtown Creek WPCP,NY0026204-034,-73.961606,40.75517,40.75517,-73.961606,"(40.75517, -73.961606)"
NC-035,East River,,5,4,18,4,18,18,3,18,2,Model,NYCDEP - Newtown Creek WPCP,NY0026204-035,-73.962102,40.754608,40.754608,-73.962102,"(40.754608, -73.962102)"
NC-036,East River,,81,90,19,98,21,18,62,22,51,Monitoring,NYCDEP - Newtown Creek WPCP,NY0026204-036,-73.964249,40.752215,40.752215,-73.964249,"(40.752215, -73.964249)"
NC-037,East River,,0,2,5,3,5,5,1,5,0,Monitoring,NYCDEP - Newtown Creek WPCP,NY0026204-037,-73.968487,40.747323,40.747323,-73.968487,"(40.747323, -73.968487)"
NC-038,East River,,9,10,20,11,20,20,7,20,5,Model,NYCDEP - Newtown Creek WPCP,NY0026204-038,-73.970014,40.74543,40.74543,-73.970014,"(40.74543, -73.970014)"
NC-039,East River,,5,1,22,1,7,19,1,5,0,Model,NYCDEP - Newtown Creek WPCP,NY0026204-039,-73.970373,40.744955,40.744955,-73.970373,"(40.744955, -73.970373)"
NC-040,East River,,1,0,17,0,1,14,0,5,0,Model,NYCDEP - Newtown Creek WPCP,NY0026204-040,-73.970944,40.744442,40.744442,-73.970944,"(40.744442, -73.970944)"
NC-041,East River,,45,28,22,29,20,22,20,18,15,Monitoring,NYCDEP - Newtown Creek WPCP,NY0026204-041,-73.971889,40.742616,40.742616,-73.971889,"(40.742616, -73.971889)"
NC-042,East River,,0,2,17,4,12,10,1,17,2,Model,NYCDEP - Newtown Creek WPCP,NY0026204-042,-73.975568,40.713685,40.713685,-73.975568,"(40.713685, -73.975568)"
NC-043,East River,,4,5,18,5,18,21,3,21,2,Model,NYCDEP - Newtown Creek WPCP,NY0026204-043,-73.972443,40.740053,40.740053,-73.972443,"(40.740053, -73.972443)"
NC-044,East River,,1,0,14,0,2,17,0,3,0,Model,NYCDEP - Newtown Creek WPCP,NY0026204-044,-73.972669,40.739348,40.739348,-73.972669,"(40.739348, -73.972669)"
NC-045,East River,,34,24,21,26,21,21,17,21,13,Monitoring,NYCDEP - Newtown Creek WPCP,NY0026204-045,-73.973985,40.73754,40.73754,-73.973985,"(40.73754, -73.973985)"
NC-046,East River,,13,7,29,8,20,26,6,29,11,Model,NYCDEP - Newtown Creek WPCP,NY0026204-046,-73.972685,40.735295,40.735295,-73.972685,"(40.735295, -73.972685)"
NC-047,East River,,1,1,13,1,11,11,0,0,0,Model,NYCDEP - Newtown Creek WPCP,NY0026204-047,-73.974415,40.735177,40.735177,-73.974415,"(40.735177, -73.974415)"
NC-048,East River,,24,16,36,17,26,40,14,27,10,Model,NYCDEP - Newtown Creek WPCP,NY0026204-048,-73.9736,40.733067,40.733067,-73.9736,"(40.733067, -73.9736)"
NC-049,East River,,26,23,18,22,19,18,15,18,9,Monitoring,NYCDEP - Newtown Creek WPCP,NY0026204-049,-73.973463,40.731463,40.731463,-73.973463,"(40.731463, -73.973463)"
NC-050,East River,,53,28,33,27,23,32,21,26,16,unknown,NYCDEP - Newtown Creek WPCP,NY0026204-050,-73.99676334,40.70887937,40.70887937,-73.99676334,"(40.7088793705735, -73.9967633368397)"
NC-051,East River,,0,1,18,0,5,11,0,3,0,Model,NYCDEP - Newtown Creek WPCP,NY0026204-051,-74.007669,40.702907,40.702907,-74.007669,"(40.702907, -74.007669)"
NC-052,East River,,41,31,20,34,19,18,23,22,16,Monitoring,NYCDEP - Newtown Creek WPCP,NY0026204-052,-73.971606,40.72678,40.72678,-73.971606,"(40.72678, -73.971606)"
NC-053,East River,,3,3,22,3,18,17,2,18,1,Model,NYCDEP - Newtown Creek WPCP,NY0026204-053,-73.972098,40.724423,40.724423,-73.972098,"(40.724423, -73.972098)"
NC-054,East River,,3,1,12,1,13,15,1,12,1,Model,NYCDEP - Newtown Creek WPCP,NY0026204-054,-73.972544,40.722615,40.722615,-73.972544,"(40.722615, -73.972544)"
NC-055,East River,,2,2,25,2,20,20,2,22,1,Model,NYCDEP - Newtown Creek WPCP,NY0026204-055,-73.972831,40.721312,40.721312,-73.972831,"(40.721312, -73.972831)"
NC-056,East River,,72,63,43,64,42,56,48,46,40,Model,NYCDEP - Newtown Creek WPCP,NY0026204-056,-73.97347,40.718894,40.718894,-73.97347,"(40.718894, -73.97347)"
NC-057,East River,,11,8,29,9,20,29,6,23,5,Model,NYCDEP - Newtown Creek WPCP,NY0026204-057,-73.974047,40.717281,40.717281,-73.974047,"(40.717281, -73.974047)"
NC-058,East River,,37,30,37,32,31,42,22,32,20,Model,NYCDEP - Newtown Creek WPCP,NY0026204-058,-73.974537,40.715925,40.715925,-73.974537,"(40.715925, -73.974537)"
NC-059,East River,,44,23,41,23,34,49,18,37,15,Model,NYCDEP - Newtown Creek WPCP,NY0026204-059,-73.976113,40.71252,40.71252,-73.976113,"(40.71252, -73.976113)"
NC-060,East River,,4,2,27,2,19,23,1,20,1,Model,NYCDEP - Newtown Creek WPCP,NY0026204-060,-73.978123,40.710526,40.710526,-73.978123,"(40.710526, -73.978123)"
NC-061,East River,,2,2,19,2,16,18,1,18,1,Model,NYCDEP - Newtown Creek WPCP,NY0026204-061,-73.980452,40.710279,40.710279,-73.980452,"(40.710279, -73.980452)"
NC-062,East River,,17,14,53,15,49,68,11,51,10,Model,NYCDEP - Newtown Creek WPCP,NY0026204-062,-73.982954,40.709434,40.709434,-73.982954,"(40.709434, -73.982954)"
NC-063,East River,,45,28,24,31,23,29,21,26,18,Monitoring,NYCDEP - Newtown Creek WPCP,NY0026204-063,-73.98829,40.709149,40.709149,-73.98829,"(40.709149, -73.98829)"
NC-064,East River,,9,6,21,6,19,18,4,21,3,Model,NYCDEP - Newtown Creek WPCP,NY0026204-064,-73.993875,40.709233,40.709233,-73.993875,"(40.709233, -73.993875)"
NC-065,East River,,0,2,5,7,5,5,1,6,3,Model,NYCDEP - Newtown Creek WPCP,NY0026204-065,-73.996332,40.708885,40.708885,-73.996332,"(40.708885, -73.996332)"
NC-066,East River,,38,17,26,19,23,33,13,26,11,Model,NYCDEP - Newtown Creek WPCP,NY0026204-066,-73.998891,40.708189,40.708189,-73.998891,"(40.708189, -73.998891)"
NC-067,East River,,6,6,19,6,15,17,4,13,2,Model,NYCDEP - Newtown Creek WPCP,NY0026204-067,-74.004394,40.704939,40.704939,-74.004394,"(40.704939, -74.004394)"
NC-068,East River,,0,0,17,0,3,11,0,2,0,Model,NYCDEP - Newtown Creek WPCP,NY0026204-068,-74.009412,40.701932,40.701932,-74.009412,"(40.701932, -74.009412)"
NC-069,East River,,8,8,18,7,13,14,4,9,3,Monitoring,NYCDEP - Newtown Creek WPCP,NY0026204-069,-74.011036,40.701505,40.701505,-74.011036,"(40.701505, -74.011036)"
NC-070,East River,,1,1,17,1,11,14,1,9,0,Model,NYCDEP - Newtown Creek WPCP,NY0026204-070,-74.017521,40.704293,40.704293,-74.017521,"(40.704293, -74.017521)"
NC-071,Hudson River,,10,8,18,9,18,18,5,20,4,Model,NYCDEP - Newtown Creek WPCP,NY0026204-071,-74.018453,40.709666,40.709666,-74.018453,"(40.709666, -74.018453)"
NC-072,Hudson River,,9,9,19,9,18,19,6,19,5,Model,NYCDEP - Newtown Creek WPCP,NY0026204-072,-74.017359,40.715105,40.715105,-74.017359,"(40.715105, -74.017359)"
NC-073,Hudson River,,29,31,25,34,23,25,22,27,20,Model,NYCDEP - Newtown Creek WPCP,NY0026204-073,-74.016713,40.718568,40.718568,-74.016713,"(40.718568, -74.016713)"
NC-074,Hudson River,,13,8,19,8,16,15,5,11,4,Model,NYCDEP - Newtown Creek WPCP,NY0026204-074,-74.01225,40.722987,40.722987,-74.01225,"(40.722987, -74.01225)"
NC-075,Hudson River,,81,64,23,68,19,18,46,20,38,Monitoring,NYCDEP - Newtown Creek WPCP,NY0026204-075,-74.01188,40.724824,40.724824,-74.01188,"(40.724824, -74.01188)"
NC-076,Hudson River,,292,196,44,208,40,57,148,39,130,Monitoring,NYCDEP - Newtown Creek WPCP,NY0026204-076,-74.011222,40.729891,40.729891,-74.011222,"(40.729891, -74.011222)"
NC-077,Hudson River,49,262,351,39,403,43,52,438,55,407,Model,NYCDEP - Newtown Creek WPCP,NY0026204-077,-73.920403,40.723602,40.723602,-73.920403,"(40.723602, -73.920403)"
NC-078,Maspeth Creek,,11,9,23,10,21,25,6,26,7,Monitoring,NYCDEP - Newtown Creek WPCP,NY0026204-078,-73.999525,40.707705,40.707705,-73.999525,"(40.707705, -73.999525)"
NC-079,Hudson River,,1,1,18,1,12,14,0,9,0,unknown,NYCDEP - Newtown Creek WPCP,NY0026204-079,-74.01796183,40.7046201,40.7046201,-74.01796183,"(40.7046201010281, -74.0179618312333)"
NC-080,Hudson River,,2,9,27,10,18,24,4,23,6,Model,NYCDEP - Newtown Creek WPCP,NY0026204-080,-74.011496,40.727181,40.727181,-74.011496,"(40.727181, -74.011496)"
NC-081,Hudson River,,2,19,27,17,20,23,8,25,11,Model,NYCDEP - Newtown Creek WPCP,NY0026204-081,-74.010861,40.733507,40.733507,-74.010861,"(40.733507, -74.010861)"
NC-082,East River (E),,0,1,11,1,11,9,0,9,0,Model,NYCDEP - Newtown Creek WPCP,NY0026204-082,-73.969607,40.710164,40.710164,-73.969607,"(40.710164, -73.969607)"
NC-083,New Creek (W),71,586,812,59,908,71,17,375,85,355,Model,NYCDEP - Newtown Creek WPCP,NY0026204-083,-73.924272,40.714117,40.714117,-73.924272,"(40.714117, -73.924272)"
NC-087,East River,,1,6,18,6,16,12,2,16,5,Model,NYCDEP - Newtown Creek WPCP,NY0026204-087,-73.974192,40.734297,40.734297,-73.974192,"(40.734297, -73.974192)"
NC-088,Newtown Creek (E),,,,,,,,,,,Model,NYCDEP - Newtown Creek WPCP,NY0026204-088,-73.923886,40.720134,40.720134,-73.923886,"(40.720134, -73.923886)"
NR-002,Hudson River,,54,0,0,0,0,41,25,44,26,Model,NYCDEP - North River WPCF,NY0026247-002,-73.951189,40.832529,40.832529,-73.951189,"(40.832529, -73.951189)"
NR-003,Hudson River,,9,0,0,0,0,7,3,12,3,Model,NYCDEP - North River WPCF,NY0026247-003,-73.949308,40.836736,40.836736,-73.949308,"(40.836736, -73.949308)"
NR-004,Hudson River,,7,0,0,0,0,7,5,12,2,Monitoring,NYCDEP - North River WPCF,NY0026247-004,-73.946492,40.845897,40.845897,-73.946492,"(40.845897, -73.946492)"
NR-005,Hudson River,,0,0,0,0,0,1,0,0,0,Model,NYCDEP - North River WPCF,NY0026247-005,-73.939398,40.857649,40.857649,-73.939398,"(40.857649, -73.939398)"
NR-006,Hudson River,,76,0,0,0,0,17,33,22,33,Model,NYCDEP - North River WPCF,NY0026247-006,-73.932259,40.869258,40.869258,-73.932259,"(40.869258, -73.932259)"
NR-007,Harlem River,,2,0,0,0,0,7,1,11,1,Model,NYCDEP - North River WPCF,NY0026247-007,-73.919155,40.874798,40.874798,-73.919155,"(40.874798, -73.919155)"
NR-008,Harlem River,,27,0,0,0,0,36,17,38,18,Model,NYCDEP - North River WPCF,NY0026247-008,-73.911323,40.868793,40.868793,-73.911323,"(40.868793, -73.911323)"
NR-009,Harlem River,,3,0,0,0,0,16,2,25,2,Model,NYCDEP - North River WPCF,NY0026247-009,-73.911671,40.868073,40.868073,-73.911671,"(40.868073, -73.911671)"
NR-010,Harlem River,,14,0,0,0,0,12,7,22,8,Model,NYCDEP - North River WPCF,NY0026247-010,-73.913269,40.865545,40.865545,-73.913269,"(40.865545, -73.913269)"
NR-011,Harlem River,,3,0,0,0,0,8,1,7,1,Model,NYCDEP - North River WPCF,NY0026247-011,-73.914565,40.864335,40.864335,-73.914565,"(40.864335, -73.914565)"
NR-012,Harlem River,,2,0,0,0,0,8,0,7,1,Model,NYCDEP - North River WPCF,NY0026247-012,-73.915653,40.862941,40.862941,-73.915653,"(40.862941, -73.915653)"
NR-013,Harlem River,,1,0,0,0,0,7,0,7,0,Model,NYCDEP - North River WPCF,NY0026247-013,-73.916181,40.862435,40.862435,-73.916181,"(40.862435, -73.916181)"
NR-014,Harlem River,,3,0,0,0,0,9,1,8,1,Model,NYCDEP - North River WPCF,NY0026247-014,-73.916938,40.861941,40.861941,-73.916938,"(40.861941, -73.916938)"
NR-016,Harlem River,,3,0,0,0,0,9,1,7,1,Model,NYCDEP - North River WPCF,NY0026247-016,-73.91796,40.860726,40.860726,-73.91796,"(40.860726, -73.91796)"
NR-017,Harlem River,,67,0,0,0,0,17,28,22,25,Monitoring,NYCDEP - North River WPCF,NY0026247-017,-73.918842,40.859481,40.859481,-73.918842,"(40.859481, -73.918842)"
NR-018,Harlem River,,0,0,0,0,0,2,0,2,0,Model,NYCDEP - North River WPCF,NY0026247-018,-73.921562,40.85712,40.85712,-73.921562,"(40.85712, -73.921562)"
NR-019,Hudson River,,5,0,0,0,0,15,3,22,3,Model,NYCDEP - North River WPCF,NY0026247-019,-74.010616,40.736258,40.736258,-74.010616,"(40.736258, -74.010616)"
NR-020,Hudson River,,18,0,0,0,0,16,11,22,11,Model,NYCDEP - North River WPCF,NY0026247-020,-74.011078,40.738236,40.738236,-74.011078,"(40.738236, -74.011078)"
NR-021,Hudson River,,6,0,0,0,0,14,4,19,3,Model,NYCDEP - North River WPCF,NY0026247-021,-74.011388,40.739215,40.739215,-74.011388,"(40.739215, -74.011388)"
NR-022,Hudson River,,16,0,0,0,0,13,7,13,6,Model,NYCDEP - North River WPCF,NY0026247-022,-74.008776,40.744523,40.744523,-74.008776,"(40.744523, -74.008776)"
NR-023,Hudson River,,41,0,0,0,0,12,20,10,18,Monitoring,NYCDEP - North River WPCF,NY0026247-023,-74.0094283,40.74572222,40.745849,-74.011499,"(40.745849, -74.011499)"
NR-024,Hudson River,,18,0,0,0,0,14,8,16,8,Model,NYCDEP - North River WPCF,NY0026247-024,-74.00890652,40.74822115,40.747871,-74.011267,"(40.747871, -74.011267)"
NR-025,Hudson River,,19,0,0,0,0,13,8,14,8,Model,NYCDEP - North River WPCF,NY0026247-025,-74.00949463,40.74999926,40.750772,-74.010859,"(40.750772, -74.010859)"
NR-026,Hudson River,,26,0,0,0,0,18,13,22,13,Model,NYCDEP - North River WPCF,NY0026247-026,-74.00847278,40.75197356,40.752372,-74.009324,"(40.752372, -74.009324)"
NR-027,Hudson River,,72,0,0,0,0,13,70,84,82,Monitoring,NYCDEP - North River WPCF,NY0026247-027,-74.007278,40.754742,40.754742,-74.007278,"(40.754742, -74.007278)"
NR-028,Hudson River,,13,0,0,0,0,8,3,7,3,Model,NYCDEP - North River WPCF,NY0026247-028,-74.00470726,40.75844748,40.75951,-74.006784,"(40.75951, -74.006784)"
NR-029,Hudson River,,7,0,0,0,0,11,3,13,3,Model,NYCDEP - North River WPCF,NY0026247-029,-74.00271004,40.76099819,40.761946,-74.004823,"(40.761946, -74.004823)"
NR-030,Hudson River,,3,0,0,0,0,8,1,6,1,Model,NYCDEP - North River WPCF,NY0026247-030,-74.00142552,40.76273459,40.763616,-74.00346,"(40.763616, -74.00346)"
NR-031,Hudson River,,4,0,0,0,0,10,2,10,2,Model,NYCDEP - North River WPCF,NY0026247-031,-73.99991667,40.7633703,40.763811,-74.001112,"(40.763811, -74.001112)"
NR-032,Hudson River,,2,0,0,0,0,5,0,5,1,Model,NYCDEP - North River WPCF,NY0026247-032,-73.99912963,40.76427371,40.765789,-74.002124,"(40.765789, -74.002124)"
NR-033,Hudson River,,24,0,0,0,0,10,16,13,14,Monitoring,NYCDEP - North River WPCF,NY0026247-033,-73.997994,40.76599,40.76599,-73.997994,"(40.76599, -73.997994)"
NR-034,Hudson River,,8,0,0,0,0,15,4,21,4,Model,NYCDEP - North River WPCF,NY0026247-034,-73.99727908,40.76702141,40.768585,-74.001342,"(40.768585, -74.001342)"
NR-035,Hudson River,,10,0,0,0,0,15,6,22,6,Model,NYCDEP - North River WPCF,NY0026247-035,-73.995319,40.77111,40.77111,-73.995319,"(40.77111, -73.995319)"
NR-036,Hudson River,,20,0,0,0,0,15,9,19,9,Model,NYCDEP - North River WPCF,NY0026247-036,-73.99381,40.772979,40.773957,-73.996092,"(40.773957, -73.996092)"
NR-037,Hudson River,,1,2,5,3,5,3,1,3,1,Model,NYCDEP - North River WPCF,NY0026247-037,-73.98808,40.78163,40.78163,-73.98808,"(40.78163, -73.98808)"
NR-038,Hudson River,,6,8,9,8,11,6,6,10,2,Monitoring,NYCDEP - North River WPCF,NY0026247-038,-73.984609,40.786617,40.786617,-73.984609,"(40.786617, -73.984609)"
NR-039,Hudson River,,0,0,0,0,0,0,0,0,0,Model,NYCDEP - North River WPCF,NY0026247-039,-73.979622,40.793711,40.793711,-73.979622,"(40.793711, -73.979622)"
NR-040,Hudson River,,33,26,12,32,13,11,13,13,13,Monitoring,NYCDEP - North River WPCF,NY0026247-040,-73.977286,40.797027,40.797027,-73.977286,"(40.797027, -73.977286)"
NR-041,Hudson River,,3,2,10,2,11,6,1,10,1,Model,NYCDEP - North River WPCF,NY0026247-041,-73.971967,40.804768,40.804768,-73.971967,"(40.804768, -73.971967)"
NR-042,Hudson River,,4,3,12,3,14,8,2,18,1,Model,NYCDEP - North River WPCF,NY0026247-042,-73.968571,40.809146,40.809146,-73.968571,"(40.809146, -73.968571)"
NR-043,HudsonRiver,,132,85,17,110,18,15,60,19,57,Monitoring,NYCDEP - North River WPCF,NY0026247-043,-73.962032,40.818075,40.818075,-73.962032,"(40.818075, -73.962032)"
NR-044,Hudson River,,2,1,11,1,14,7,1,16,1,Model,NYCDEP - North River WPCF,NY0026247-044,-73.956614,40.823259,40.823259,-73.956614,"(40.823259, -73.956614)"
NR-045,Harlem River,,17,15,12,19,18,10,8,17,10,Model,NYCDEP - North River WPCF,NY0026247-045,-73.920553,40.859244,40.859244,-73.920553,"(40.859244, -73.920553)"
NR-046,Hudson River,,8,9,12,9,14,9,6,19,4,Monitoring,NYCDEP - North River WPCF,NY0026247-046,-73.990956,40.777536,40.777536,-73.990956,"(40.777536, -73.990956)"
NR-047,Hudson River,,0,0,8,0,14,2,0,1,0,Model,NYCDEP - North River WPCF,NY0026247-047,-73.998509,40.765092,40.765092,-73.998509,"(40.765092, -73.998509)"
NR-048,Hudson River,,4,4,25,6,15,14,4,18,4,Model,NYCDEP - North River WPCF,NY0026247-048,-74.001839,40.762219,40.762219,-74.001839,"(40.762219, -74.001839)"
NR-049,Hudson River,,14,11,46,14,52,15,6,29,7,Model,NYCDEP - North River WPCF,NY0026247-049,-74.00910815,40.74252896,40.742535,-74.009247,"(40.742535, -74.009247)"
NR-050,Hudson River,,0,0,5,0,3,0,0,4,0,Model,NYCDEP - North River WPCF,NY0026247-050,-74.011131,40.740715,40.740715,-74.011131,"(40.740715, -74.011131)"
NR-051,Hudson River,,,,,,,,,,,Model,NYCDEP - North River WPCF,NY0026247-051,-73.997713,40.766393,40.766393,-73.997713,"(40.766393, -73.997713)"
NR-052,Hudson River,,2,1,7,1,8,,,7,1,Model,NYCDEP - North River WPCF,NY0026247-052,-74.00578867,40.75667774,40.75672,-74.005843,"(40.75672, -74.005843)"
NR-055,Harlem River,,1,1,10,1,10,9,1,7,1,Model,NYCDEP - North River WPCF,NY0026247-055,-73.915479,40.863132,40.863132,-73.915479,"(40.863132, -73.915479)"
OB-001,Lower Bay,,,,,,,,,,,Model,NYCDEP - Oakwood Beach WPCP,NY0026174-001,-74.112502,40.547506,40.547506,-74.112502,"(40.547506, -74.112502)"
OB-001A,Lower Bay,,,,,,,,,,,Model,NYCDEP - Oakwood Beach WPCP,NY0026174-001A,-74.114687,40.549286,40.549286,-74.114687,"(40.549286, -74.114687)"
OH-001,Upper New York Bay,,,,,,,,,,,Model,NYCDEP - Owls Head WPCP,NY0026166-001,-74.03577941,40.64074904,40.641884,-74.03718,"(40.641884, -74.03718)"
OH-002,Upper New York Bay,,413,354,28,675,39,35,476,34,363,Monitoring,NYCDEP - Owls Head WPCP,NY0026166-002,-74.03112,40.644815,40.644815,-74.03112,"(40.644815, -74.03112)"
OH-003,Upper New York Bay,,397,358,39,586,47,43,330,43,255,Monitoring,NYCDEP - Owls Head WPCP,NY0026166-003,-74.021251,40.652732,40.652732,-74.021251,"(40.652732, -74.021251)"
OH-004,Upper New York Bay,,1,0,0,0,0,9,5,11,3,Monitoring,NYCDEP - Owls Head WPCP,NY0026166-004,-74.016999,40.655417,40.655417,-74.016999,"(40.655417, -74.016999)"
OH-005,Gowanus Canal,5,1,0,0,2,2,1,2,0,0,Model,NYCDEP - Owls Head WPCP,NY0026166-005,-73.989013,40.678044,40.678044,-73.989013,"(40.678044, -73.989013)"
OH-006,Gowanus Canal,33,13,9,18,23,29,28,13,27,12,Model,NYCDEP - Owls Head WPCP,NY0026166-006,-74.000313,40.667487,40.667487,-74.000313,"(40.667487, -74.000313)"
OH-007,Gowanus Canal,47,69,47,38,85,48,41,52,38,40,Model,NYCDEP - Owls Head WPCP,NY0026166-007,-73.990946,40.675536,40.675536,-73.990946,"(40.675536, -73.990946)"
OH-015,Gravesend Bay,,1140,668,43,1367,24,23,919,50,749,Monitoring,NYCDEP - Owls Head WPCP,NY0026166-015,-74.012373,40.601391,40.601391,-74.012373,"(40.601391, -74.012373)"
OH-017,Upper New York Bay,,235,257,24,439,35,32,357,32,275,Monitoring,NYCDEP - Owls Head WPCP,NY0026166-017,-74.041683,40.620603,40.620603,-74.041683,"(40.620603, -74.041683)"
OH-018,Upper New York Bay,,163,142,31,255,43,38,141,38,105,Monitoring,NYCDEP - Owls Head WPCP,NY0026166-018,-74.040443,40.631726,40.631726,-74.040443,"(40.631726, -74.040443)"
OH-019,Upper New York Bay,,42,44,27,83,37,35,35,34,23,Monitoring,NYCDEP - Owls Head WPCP,NY0026166-019,-74.037824,40.63683,40.63683,-74.037824,"(40.63683, -74.037824)"
OH-020,Upper New York Bay,,1,1,7,4,18,28,2,25,1,Model,NYCDEP - Owls Head WPCP,NY0026166-020,-74.036789,40.639076,40.639076,-74.036789,"(40.639076, -74.036789)"
OH-021,Gravesend Bay,54,292,36,13,187,26,26,57,15,44,Model,NYCDEP - Owls Head WPCP,NY0026166-021,-73.983789,40.583312,40.583312,-73.983789,"(40.583312, -73.983789)"
OH-022,Gowanus Bay,,0,,,,,,,,,Model,NYCDEP - Owls Head WPCP,NY0026166-022,-74.007959,40.660117,40.660117,-74.007959,"(40.660117, -74.007959)"
OH-023,Gowanus Bay,,1,,,,,6,1,8,0,unknown,NYCDEP - Owls Head WPCP,NY0026166-023,-74.00433656,40.66149659,40.66149659,-74.00433656,"(40.6614965947399, -74.0043365591121)"
OH-024,Gowanus Canal,35,23,15,21,31,30,29,21,29,18,Model,NYCDEP - Owls Head WPCP,NY0026166-024,-74.000325,40.663642,40.663642,-74.000325,"(40.663642, -74.000325)"
OH-025,Gowanus Bay,,,,,,,,,,,Model,NYCDEP - Owls Head WPCP,NY0026166-025,-74.006317,40.661944,40.661944,-74.006317,"(40.661944, -74.006317)"
OH-026,Gowanus Canal,,,,,,,,,,,Model,NYCDEP - Owls Head WPCP,NY0026166-026,-73.999708,40.664217,40.664217,-73.999708,"(40.664217, -73.999708)"
PR-002,Kill Van Kull,,0,0,0,0,0,0,0,0,0,Model,NYCDEP - Port Richmond WPCF,NY0026107-002,-74.12366318,40.64035293,40.640039,-74.12347,"(40.640039, -74.12347)"
PR-003,Kill Van Kull,,0,0,0,0,0,0,0,0,0,Model,NYCDEP - Port Richmond WPCF,NY0026107-003,-74.118397,40.641517,40.641517,-74.118397,"(40.641517, -74.118397)"
PR-004,Kill Van Kull,,0,0,0,0,0,0,0,0,0,Model,NYCDEP - Port Richmond WPCF,NY0026107-004,-74.108859,40.645553,40.645553,-74.108859,"(40.645553, -74.108859)"
PR-005,Kill Van Kull,,0,0,0,0,1,0,0,2,0,Model,NYCDEP - Port Richmond WPCF,NY0026107-005,-74.106785,40.645504,40.645504,-74.106785,"(40.645504, -74.106785)"
PR-006,Kill Van Kull,,6,7,27,9,23,15,4,19,6,Model,NYCDEP - Port Richmond WPCF,NY0026107-006,-74.098394,40.64536,40.64536,-74.098394,"(40.64536, -74.098394)"
PR-007,Kill Van Kull,,0,0,0,0,0,0,0,0,0,Model,NYCDEP - Port Richmond WPCF,NY0026107-007,-74.102072,40.645491,40.645491,-74.102072,"(40.645491, -74.102072)"
PR-008,Kill Van Kull,,0,0,0,0,0,0,0,0,0,Model,NYCDEP - Port Richmond WPCF,NY0026107-008,-74.093068,40.646004,40.646004,-74.093068,"(40.646004, -74.093068)"
PR-009,Kill Van Kull,,0,0,0,0,0,0,0,0,0,Model,NYCDEP - Port Richmond WPCF,NY0026107-009,-74.089374,40.647321,40.647321,-74.089374,"(40.647321, -74.089374)"
PR-010,Upper New York Bay,,0,1,10,1,6,4,1,5,1,Model,NYCDEP - Port Richmond WPCF,NY0026107-010,-74.084232,40.648648,40.648648,-74.084232,"(40.648648, -74.084232)"
PR-011,Upper New York Bay,,0,0,3,0,2,2,0,4,0,Model,NYCDEP - Port Richmond WPCF,NY0026107-011,-74.076596,40.646928,40.646928,-74.076596,"(40.646928, -74.076596)"
PR-013,Upper New York Bay,,28,56,37,64,43,17,29,33,43,Model,NYCDEP - Port Richmond WPCF,NY0026107-013,-74.072603,40.637955,40.637955,-74.072603,"(40.637955, -74.072603)"
PR-014,Upper New York Bay,,23,42,39,48,47,24,23,40,32,Model,NYCDEP - Port Richmond WPCF,NY0026107-014,-74.073062,40.630713,40.630713,-74.073062,"(40.630713, -74.073062)"
PR-015,Upper New York Bay,,1,2,16,2,16,10,1,12,2,Model,NYCDEP - Port Richmond WPCF,NY0026107-015,-74.072463,40.625783,40.625783,-74.072463,"(40.625783, -74.072463)"
PR-016,Upper New York Bay,,0,2,19,2,21,11,1,17,1,Model,NYCDEP - Port Richmond WPCF,NY0026107-016,-74.072185,40.62454,40.62454,-74.072185,"(40.62454, -74.072185)"
PR-017,Upper New York Bay,,12,15,42,18,51,24,9,41,12,Model,NYCDEP - Port Richmond WPCF,NY0026107-017,-74.070628,40.622499,40.622499,-74.070628,"(40.622499, -74.070628)"
PR-018,Upper New York Bay,,3,3,31,4,34,21,2,38,2,Model,NYCDEP - Port Richmond WPCF,NY0026107-018,-74.069175,40.620807,40.620807,-74.069175,"(40.620807, -74.069175)"
PR-019,Upper New York Bay,,26,64,46,74,53,28,37,42,47,Monitoring,NYCDEP - Port Richmond WPCF,NY0026107-019,-74.067102,40.619366,40.619366,-74.067102,"(40.619366, -74.067102)"
PR-020,Upper New York Bay,,2,10,42,11,48,26,6,41,7,Model,NYCDEP - Port Richmond WPCF,NY0026107-020,-74.064707,40.617239,40.617239,-74.064707,"(40.617239, -74.064707)"
PR-021,Upper New York Bay,,0,1,15,1,18,7,0,15,1,Model,NYCDEP - Port Richmond WPCF,NY0026107-021,-74.062906,40.615752,40.615752,-74.062906,"(40.615752, -74.062906)"
PR-023,Upper New York Bay,,0,0,0,0,0,0,0,0,0,Model,NYCDEP - Port Richmond WPCF,NY0026107-023,-74.060228,40.611823,40.611823,-74.060228,"(40.611823, -74.060228)"
PR-023A,Upper New York Bay,,76,0,0,0,0,41,75,52,85,Model,NYCDEP - Port Richmond WPCF,NY0026107-023A,-74.060018,40.611932,40.611932,-74.060018,"(40.611932, -74.060018)"
PR-023B,Upper New York Bay,,,,,,,,,,,Model,NYCDEP - Port Richmond WPCF,NY0026107-023B,-74.060018,40.611932,40.611932,-74.060018,"(40.611932, -74.060018)"
PR-024,Newark Bay,,0,0,0,0,0,0,0,2,0,Model,NYCDEP - Port Richmond WPCF,NY0026107-024,-74.17233274,40.64282152,40.644367,-74.17156,"(40.644367, -74.17156)"
PR-025,Newark Bay,,0,0,0,0,0,0,0,0,0,Model,NYCDEP - Port Richmond WPCF,NY0026107-025,-74.165782,40.641222,40.641222,-74.165782,"(40.641222, -74.165782)"
PR-026,Newark Bay,,1,1,6,2,6,3,0,6,1,Model,NYCDEP - Port Richmond WPCF,NY0026107-026,-74.159905,40.639921,40.639921,-74.159905,"(40.639921, -74.159905)"
PR-027,Newark Bay,,1,1,8,2,7,3,0,7,1,Model,NYCDEP - Port Richmond WPCF,NY0026107-027,-74.157916,40.63796,40.63796,-74.157916,"(40.63796, -74.157916)"
PR-028,Newark Bay,,10,17,34,19,40,16,8,29,13,Model,NYCDEP - Port Richmond WPCF,NY0026107-028,-74.14899481,40.63877815,40.63745,-74.148536,"(40.63745, -74.148536)"
PR-029,Newark Bay,,217,211,94,249,108,40,113,43,152,Model,NYCDEP - Port Richmond WPCF,NY0026107-029,-74.139267,40.640724,40.640724,-74.139267,"(40.640724, -74.139267)"
PR-030,Upper New York Bay,,0,3,39,3,41,24,2,38,2,Monitoring,NYCDEP - Port Richmond WPCF,NY0026107-030,-74.065699,40.617956,40.617956,-74.065699,"(40.617956, -74.065699)"
PR-031,Upper New York Bay,,139,223,40,259,54,27,120,43,158,Model,NYCDEP - Port Richmond WPCF,NY0026107-031,-74.072696,40.626968,40.626968,-74.072696,"(40.626968, -74.072696)"
PR-032,Upper New York Bay,,0,1,15,2,14,7,1,18,1,Model,NYCDEP - Port Richmond WPCF,NY0026107-032,-74.0734037,40.63731637,40.637582,-74.06954,"(40.637582, -74.06954)"
PR-033,Kill Van Kull,,0,0,0,0,0,0,0,0,0,Model,NYCDEP - Port Richmond WPCF,NY0026107-033,-74.113018,40.643832,40.643832,-74.113018,"(40.643832, -74.113018)"
PR-034,Kill Van Kull,,0,0,0,0,0,0,0,0,0,Model,NYCDEP - Port Richmond WPCF,NY0026107-034,-74.11421318,40.64344548,40.643204,-74.11402,"(40.643204, -74.11402)"
PR-035,Kill Van Kull,,0,0,0,0,0,0,0,0,0,Monitoring,NYCDEP - Port Richmond WPCF,NY0026107-035,-74.12611,40.640243,40.640243,-74.12611,"(40.640243, -74.12611)"
PR-036,Bodine Creek,,0,0,0,0,0,0,0,0,0,Model,NYCDEP - Port Richmond WPCF,NY0026107-036,-74.127649,40.637471,40.637471,-74.127649,"(40.637471, -74.127649)"
PR-037,Kill Van Kull,,4,3,16,4,15,6,1,13,3,Model,NYCDEP - Port Richmond WPCF,NY0026107-037,-74.131086,40.641029,40.641029,-74.131086,"(40.641029, -74.131086)"
RH-001,East River,,,,,,,,,,,Model,NYCDEP - Red Hook WPCP,NY0027073-001,-73.977271,40.704222,40.704222,-73.977271,"(40.704222, -73.977271)"
RH-002,East River,,0,0,0,0,0,0,0,0,0,Monitoring,NYCDEP - Red Hook WPCP,NY0027073-002,-73.981071,40.705534,40.705534,-73.981071,"(40.705534, -73.981071)"
RH-003,East River,,0,0,5,0,6,7,0,10,1,Model,NYCDEP - Red Hook WPCP,NY0027073-003,-73.981136,40.705788,40.705788,-73.981136,"(40.705788, -73.981136)"
RH-005,East River,,153,143,22,181,24,17,98,25,137,Monitoring,NYCDEP - Red Hook WPCP,NY0027073-005,-73.982364,40.705778,40.705778,-73.982364,"(40.705778, -73.982364)"
RH-006,East River,,8,9,34,10,28,28,6,35,8,Model,NYCDEP - Red Hook WPCP,NY0027073-006,-73.987472,40.705163,40.705163,-73.987472,"(40.705163, -73.987472)"
RH-007,East River,,1,1,20,1,17,14,1,22,1,Model,NYCDEP - Red Hook WPCP,NY0027073-007,-73.988457,40.70455,40.70455,-73.988457,"(40.70455, -73.988457)"
RH-008,East River,,2,3,18,3,17,14,2,21,3,Model,NYCDEP - Red Hook WPCP,NY0027073-008,-73.989718,40.704914,40.704914,-73.989718,"(40.704914, -73.989718)"
RH-009,East River,,2,2,20,2,17,14,2,23,2,Model,NYCDEP - Red Hook WPCP,NY0027073-009,-73.990766,40.704342,40.704342,-73.990766,"(40.704342, -73.990766)"
RH-010,East River,,0,0,5,0,4,7,0,10,0,Model,NYCDEP - Red Hook WPCP,NY0027073-010,-73.997232,40.700068,40.700068,-73.997232,"(40.700068, -73.997232)"
RH-011,East River,,3,3,17,3,15,14,3,18,4,Model,NYCDEP - Red Hook WPCP,NY0027073-011,-73.999559,40.696134,40.696134,-73.999559,"(40.696134, -73.999559)"
RH-012,East River,,8,8,18,9,17,14,6,21,10,Model,NYCDEP - Red Hook WPCP,NY0027073-012,-73.995035,40.703168,40.703168,-73.995035,"(40.703168, -73.995035)"
RH-013,East River,,0,0,12,0,10,12,0,16,0,Model,NYCDEP - Red Hook WPCP,NY0027073-013,-74.000326,40.694203,40.694203,-74.000326,"(40.694203, -74.000326)"
RH-014,East River,,20,38,52,40,51,48,26,47,31,Model,NYCDEP - Red Hook WPCP,NY0027073-014,-74.000954,40.691259,40.691259,-74.000954,"(40.691259, -74.000954)"
RH-016,East River,,18,17,19,21,23,15,26,23,34,Model,NYCDEP - Red Hook WPCP,NY0027073-016,-74.000786,40.690488,40.690488,-74.000786,"(40.690488, -74.000786)"
RH-018,East River,,4,5,20,6,19,15,7,23,9,Model,NYCDEP - Red Hook WPCP,NY0027073-018,-74.004217,40.688716,40.688716,-74.004217,"(40.688716, -74.004217)"
RH-019,Buttermilk Channel,,13,9,29,12,25,22,11,28,13,Model,NYCDEP - Red Hook WPCP,NY0027073-019,-74.008212,40.686384,40.686384,-74.008212,"(40.686384, -74.008212)"
RH-020,Buttermilk Street,,0,0,12,0,10,14,1,17,1,Model,NYCDEP - Red Hook WPCP,NY0027073-020,-74.00572293,40.68657837,40.686844,-74.006387,"(40.686844, -74.006387)"
RH-021,Buttermilk Channel,,0,0,0,0,0,,,25,7,Model,NYCDEP - Red Hook WPCP,NY0027073-021,-74.00741382,40.68640545,40.686985,-74.007607,"(40.686985, -74.007607)"
RH-022,Atlantic Basin,,2,2,23,3,23,17,4,25,4,Model,NYCDEP - Red Hook WPCP,NY0027073-022,-74.009666,40.683281,40.683281,-74.009666,"(40.683281, -74.009666)"
RH-023,Atlantic Basin,,2,2,22,3,24,15,3,25,4,Model,NYCDEP - Red Hook WPCP,NY0027073-023,-74.010539,40.682545,40.682545,-74.010539,"(40.682545, -74.010539)"
RH-024,Atlantic Basin,,2,2,21,3,24,15,3,25,4,Model,NYCDEP - Red Hook WPCP,NY0027073-024,-74.01197,40.681319,40.681319,-74.01197,"(40.681319, -74.01197)"
RH-025,Atlantic Basin,,5,6,30,7,24,18,6,25,6,Model,NYCDEP - Red Hook WPCP,NY0027073-025,-74.013022,40.680418,40.680418,-74.013022,"(40.680418, -74.013022)"
RH-028,Buttermilk Channel,,97,12,19,12,16,12,9,40,26,Monitoring,NYCDEP - Red Hook WPCP,NY0027073-028,-74.017675,40.680565,40.680565,-74.017675,"(40.680565, -74.017675)"
RH-029,Upper New York Bay,,2,3,23,3,22,21,2,27,3,Model,NYCDEP - Red Hook WPCP,NY0027073-029,-74.017296,40.673609,40.673609,-74.017296,"(40.673609, -74.017296)"
RH-030,Gowanus Canal,,18,33,28,56,74,14,15,20,18,Model,NYCDEP - Red Hook WPCP,NY0027073-030,-74.007369,40.6686,40.6686,-74.007369,"(40.6686, -74.007369)"
RH-030A,Gowanus Canal,,,,,,,,,,,Model,NYCDEP - Red Hook WPCP,NY0027073-030A,-74.007238,40.668597,40.668597,-74.007238,"(40.668597, -74.007238)"
RH-031,Gowanus Canal,,35,50,33,168,81,14,15,20,19,Model,NYCDEP - Red Hook WPCP,NY0027073-031,-73.998917,40.671423,40.671423,-73.998917,"(40.671423, -73.998917)"
RH-032,Gowanus Canal,,2,0,16,1,12,,,,,unknown,NYCDEP - Red Hook WPCP,NY0027073-032,-73.99669458,40.67416758,40.67416758,-73.99669458,"(40.6741675807602, -73.9966945810025)"
RH-033,Gowanus Canal,,0,0,16,1,12,14,0,14,0,Model,NYCDEP - Red Hook WPCP,NY0027073-033,-73.986912,40.681317,40.681317,-73.986912,"(40.681317, -73.986912)"
RH-034,Gowanus Canal,,121,212,42,232,47,41,116,42,160,Model,NYCDEP - Red Hook WPCP,NY0027073-034,-73.986846,40.681694,40.681694,-73.986846,"(40.681694, -73.986846)"
RH-035,Gowanus Canal,,111,148,74,140,76,14,5,19,7,Model,NYCDEP - Red Hook WPCP,NY0027073-035,-73.992566,40.676106,40.676106,-73.992566,"(40.676106, -73.992566)"
RH-036,Gowanus Canal,,2,2,18,2,21,17,1,25,2,Model,NYCDEP - Red Hook WPCP,NY0027073-036,-73.988608,40.678766,40.678766,-73.988608,"(40.678766, -73.988608)"
RH-037,Gowanus Canal,,1,1,17,1,13,15,0,14,1,Model,NYCDEP - Red Hook WPCP,NY0027073-037,-73.987739,40.680033,40.680033,-73.987739,"(40.680033, -73.987739)"
RH-038,Gowanus Canal,,1,1,13,1,14,14,1,14,1,Model,NYCDEP - Red Hook WPCP,NY0027073-038,-73.987325,40.680677,40.680677,-73.987325,"(40.680677, -73.987325)"
RH-039,Gowanus Canal,,1,,,,,,,,,unknown,NYCDEP - Red Hook WPCP,NY0027073-039,-73.98724473,40.68143189,40.68143189,-73.98724473,"(40.68143189458, -73.987244732391)"
RH-040,East River,,37,24,23,29,25,19,17,26,21,Model,NYCDEP - Red Hook WPCP,NY0027073-040,-73.977437,40.703349,40.703349,-73.977437,"(40.703349, -73.977437)"
RO-001,Jamaica Bay,,,,,,,,,,,Model,NYCDEP - Rockaway WWTP,NY0026221-001,-73.829805,40.584534,40.584534,-73.829805,"(40.584534, -73.829805)"
RO-003,Jamaica Bay,,,,,,,,,,,Model,NYCDEP - Rockaway WWTP,NY0026221-003,-73.828903,40.58475,40.58475,-73.828903,"(40.58475, -73.828903)"
RO-009,Jamaica Bay,,,,,,,,,,,Model,NYCDEP - Rockaway WWTP,NY0026221-009,-73.821109,40.586967,40.586967,-73.821109,"(40.586967, -73.821109)"
RO-013,Jamaica Bay,,,,,,,,,,,Model,NYCDEP - Rockaway WWTP,NY0026221-013,-73.818172,40.588526,40.588526,-73.818172,"(40.588526, -73.818172)"
RO-014,Jamaica Bay,,,,,,,,,,,Model,NYCDEP - Rockaway WWTP,NY0026221-014,-73.816636,40.589406,40.589406,-73.816636,"(40.589406, -73.816636)"
RO-016,Jamaica Bay,,,,,,,,,,,Model,NYCDEP - Rockaway WWTP,NY0026221-016,-73.770034,40.607128,40.607128,-73.770034,"(40.607128, -73.770034)"
RO-017,Jamaica Bay,,,,,,,,,,,Model,NYCDEP - Rockaway WWTP,NY0026221-017,-73.738578,40.597375,40.597375,-73.738578,"(40.597375, -73.738578)"
RO-029,Jamaica Bay,,,,,,,,,,,Monitoring,NYCDEP - Rockaway WWTP,NY0026221-029,-73.828716,40.584802,40.584802,-73.828716,"(40.584802, -73.828716)"
RO-031,Mott Basin,,,,,,,,,,,Model,NYCDEP - Rockaway WWTP,NY0026221-031,-73.755786,40.610375,40.610375,-73.755786,"(40.610375, -73.755786)"
RO-032,Jamaica Bay,,,,,,,,,,,Model,NYCDEP - Rockaway WWTP,NY0026221-032,-73.821177,40.586936,40.586936,-73.821177,"(40.586936, -73.821177)"
RO-033,Beach Channel,,,,,,,,,,,Model,NYCDEP - Rockaway WWTP,NY0026221-033,-73.828536,40.584879,40.584879,-73.828536,"(40.584879, -73.828536)"
TI-003,Powell's Cove,,127,158,63,89,57,43,60,57,62,Model,NYCDEP - Tallmans Island WPCP,NY0026239-003,-73.82772852,40.79328893,40.792975,-73.829274,"(40.792975, -73.829274)"
TI-004,East River,,10,2,15,6,17,13,2,19,3,Model,NYCDEP - Tallmans Island WPCP,NY0026239-004,-73.812911,40.79714,40.79714,-73.812911,"(40.79714, -73.812911)"
TI-005,East River,,0,0,0,0,3,1,0,2,0,Model,NYCDEP - Tallmans Island WPCP,NY0026239-005,-73.806567,40.796438,40.796438,-73.806567,"(40.796438, -73.806567)"
TI-006,Little Neck Bay,,0,0,0,0,0,0,0,0,0,Model,NYCDEP - Tallmans Island WPCP,NY0026239-006,-73.770867,40.782327,40.782327,-73.770867,"(40.782327, -73.770867)"
TI-007,Alley Creek,,0,0,0,55,58,49,42,1,0,Model,NYCDEP - Tallmans Island WPCP,NY0026239-007,-73.751822,40.763016,40.763016,-73.751822,"(40.763016, -73.751822)"
TI-008,Alley Creek,38,59,0,0,0,0,0,0,0,0,Monitoring,NYCDEP - Tallmans Island WPCP,NY0026239-008,-73.751047,40.761874,40.761874,-73.751047,"(40.761874, -73.751047)"
TI-009,Little Neck Basin,,0,0,0,0,0,,,0,0,Model,NYCDEP - Tallmans Island WPCP,NY0026239-009,-73.75439518,40.76658867,40.767458,-73.751594,"(40.767458, -73.751594)"
TI-010,Flushing River,73,1580,94,15,479,19,28,398,16,463,Monitoring,NYCDEP - Tallmans Island WPCP,NY0026239-010,-73.839325,40.754541,40.754541,-73.839325,"(40.754541, -73.839325)"
TI-011,Flushing River,54,332,292,56,398,66,53,281,62,261,Monitoring,NYCDEP - Tallmans Island WPCP,NY0026239-011,-73.839083,40.765967,40.765967,-73.839083,"(40.765967, -73.839083)"
TI-012,Flushing River,,0,,,,,,,,,Model,NYCDEP - Tallmans Island WPCP,NY0026239-012,-73.849737,40.772002,40.772002,-73.849737,"(40.772002, -73.849737)"
TI-014,Flushing Bay,32,2,11,32,16,39,34,11,39,11,Model,NYCDEP - Tallmans Island WPCP,NY0026239-014,-73.849459,40.778595,40.778595,-73.849459,"(40.778595, -73.849459)"
TI-015,Flushing Bay,29,1,3,23,5,26,23,3,33,3,Model,NYCDEP - Tallmans Island WPCP,NY0026239-015,-73.84975759,40.78005241,40.780149,-73.850313,"(40.780149, -73.850313)"
TI-016,Flushing Bay,45,28,31,39,40,43,39,28,47,29,Model,NYCDEP - Tallmans Island WPCP,NY0026239-016,-73.849185,40.781665,40.781665,-73.849185,"(40.781665, -73.849185)"
TI-017,Flushing Bay,10,0,3,22,4,26,24,2,29,3,Model,NYCDEP - Tallmans Island WPCP,NY0026239-017,-73.858101,40.783751,40.783751,-73.858101,"(40.783751, -73.858101)"
TI-018,Flushing Bay,34,2,5,31,7,37,34,5,45,5,Model,NYCDEP - Tallmans Island WPCP,NY0026239-018,-73.858958,40.785541,40.785541,-73.858958,"(40.785541, -73.858958)"
TI-019,East River,,0,2,16,3,17,14,1,18,2,Model,NYCDEP - Tallmans Island WPCP,NY0026239-019,-73.854464,40.78911,40.78911,-73.854464,"(40.78911, -73.854464)"
TI-020,East River,,6,6,30,9,33,30,6,41,6,Monitoring,NYCDEP - Tallmans Island WPCP,NY0026239-020,-73.84884,40.794488,40.794488,-73.84884,"(40.794488, -73.84884)"
TI-022,Flushing River,55,30,70,57,95,67,53,62,65,65,Monitoring,NYCDEP - Tallmans Island WPCP,NY0026239-022,-73.838548,40.756004,40.756004,-73.838548,"(40.756004, -73.838548)"
TI-023,Little Bay (S),,198,115,39,139,39,34,85,38,90,Monitoring,NYCDEP - Tallmans Island WPCP,NY0026239-023,-73.793536,40.789144,40.789144,-73.793536,"(40.789144, -73.793536)"
TI-024,Alley Pond (S),,0,,,,,,,,,Model,NYCDEP - Tallmans Island WPCP,NY0026239-024,-73.744619,40.756631,40.756631,-73.744619,"(40.756631, -73.744619)"
TI-025,Alley Creek,,0,155,25,203,25,20,110,14,105,Model,NYCDEP - Tallmans Island WPCP,NY0026239-025,-73.752829,40.764147,40.764147,-73.752829,"(40.764147, -73.752829)"
WI-001,East River,,,,,,,,,,,Model,NYCDEP - Wards Island WPCP,NY0026131-001,-73.920712,40.786525,40.786525,-73.920712,"(40.786525, -73.920712)"
WI-002,East River,,11,8,43,9,44,42,6,47,7,Model,NYCDEP - Wards Island WPCP,NY0026131-002,-73.950643,40.766428,40.766428,-73.950643,"(40.766428, -73.950643)"
WI-003,East River,,115,102,43,126,58,43,75,46,92,Monitoring,NYCDEP - Wards Island WPCP,NY0026131-003,-73.950116,40.767046,40.767046,-73.950116,"(40.767046, -73.950116)"
WI-004,East River,,12,8,39,9,38,34,6,45,8,Model,NYCDEP - Wards Island WPCP,NY0026131-004,-73.949569,40.767643,40.767643,-73.949569,"(40.767643, -73.949569)"
WI-005,East River,,10,6,31,7,32,29,5,42,6,Model,NYCDEP - Wards Island WPCP,NY0026131-005,-73.949101,40.768263,40.768263,-73.949101,"(40.768263, -73.949101)"
WI-006,East River,,12,7,35,8,35,32,5,43,7,Model,NYCDEP - Wards Island WPCP,NY0026131-006,-73.94865,40.768932,40.768932,-73.94865,"(40.768932, -73.94865)"
WI-007,East River,,11,6,30,8,33,29,5,39,6,Model,NYCDEP - Wards Island WPCP,NY0026131-007,-73.948062,40.769492,40.769492,-73.948062,"(40.769492, -73.948062)"
WI-008,East River,,224,176,43,204,46,44,135,48,154,Monitoring,NYCDEP - Wards Island WPCP,NY0026131-008,-73.947458,40.77016,40.77016,-73.947458,"(40.77016, -73.947458)"
WI-009,East River,,0,0,0,0,0,0,0,0,0,Model,NYCDEP - Wards Island WPCP,NY0026131-009,-73.94504,40.772426,40.772426,-73.94504,"(40.772426, -73.94504)"
WI-010,East River,,0,0,0,0,0,0,0,0,0,Model,NYCDEP - Wards Island WPCP,NY0026131-010,-73.944405,40.773045,40.773045,-73.944405,"(40.773045, -73.944405)"
WI-011,East River,,3,3,12,4,17,11,2,19,2,Model,NYCDEP - Wards Island WPCP,NY0026131-011,-73.943268,40.774287,40.774287,-73.943268,"(40.774287, -73.943268)"
WI-012,East River,,41,25,28,31,30,24,20,40,26,Model,NYCDEP - Wards Island WPCP,NY0026131-012,-73.941981,40.776365,40.776365,-73.941981,"(40.776365, -73.941981)"
WI-013,East River,,1,0,13,0,19,9,0,33,0,Model,NYCDEP - Wards Island WPCP,NY0026131-013,-73.942547,40.777674,40.777674,-73.942547,"(40.777674, -73.942547)"
WI-014,East River,,1,1,20,1,22,14,0,35,1,Model,NYCDEP - Wards Island WPCP,NY0026131-014,-73.94281,40.778407,40.778407,-73.94281,"(40.778407, -73.94281)"
WI-015,East River,,14,9,26,12,27,21,7,36,10,Model,NYCDEP - Wards Island WPCP,NY0026131-015,-73.943467,40.779841,40.779841,-73.943467,"(40.779841, -73.943467)"
WI-016,East River,,30,22,31,29,32,28,18,39,22,Model,NYCDEP - Wards Island WPCP,NY0026131-016,-73.943803,40.782025,40.782025,-73.943803,"(40.782025, -73.943803)"
WI-017,East River,,17,10,28,13,27,22,9,36,11,Model,NYCDEP - Wards Island WPCP,NY0026131-017,-73.943387,40.782584,40.782584,-73.943387,"(40.782584, -73.943387)"
WI-018,East River,,1,1,17,1,22,10,0,30,1,Model,NYCDEP - Wards Island WPCP,NY0026131-018,-73.940491,40.784902,40.784902,-73.940491,"(40.784902, -73.940491)"
WI-019,East River,,1,1,16,1,19,10,0,29,0,Model,NYCDEP - Wards Island WPCP,NY0026131-019,-73.93977,40.785349,40.785349,-73.93977,"(40.785349, -73.93977)"
WI-020,East River,,0,,,,,,,,,Model,NYCDEP - Wards Island WPCP,NY0026131-020,-73.938789,40.786454,40.786454,-73.938789,"(40.786454, -73.938789)"
WI-021,East River,,1,0,11,1,17,7,0,23,0,Model,NYCDEP - Wards Island WPCP,NY0026131-021,-73.938179,40.787134,40.787134,-73.938179,"(40.787134, -73.938179)"
WI-022,East River,,1,1,13,2,19,7,0,25,1,Model,NYCDEP - Wards Island WPCP,NY0026131-022,-73.937774,40.787783,40.787783,-73.937774,"(40.787783, -73.937774)"
WI-023,East River,,79,59,28,67,27,25,50,29,56,Monitoring,NYCDEP - Wards Island WPCP,NY0026131-023,-73.937421,40.788564,40.788564,-73.937421,"(40.788564, -73.937421)"
WI-024,East River,,100,77,24,100,25,21,58,32,73,Monitoring,NYCDEP - Wards Island WPCP,NY0026131-024,-73.935832,40.791108,40.791108,-73.935832,"(40.791108, -73.935832)"
WI-025,East River,,35,33,45,39,44,44,26,47,27,Model,NYCDEP - Wards Island WPCP,NY0026131-025,-73.932801,40.793185,40.793185,-73.932801,"(40.793185, -73.932801)"
WI-026,East River,,1,1,12,1,18,8,0,24,1,Model,NYCDEP - Wards Island WPCP,NY0026131-026,-73.931902,40.793663,40.793663,-73.931902,"(40.793663, -73.931902)"
WI-027,East River,,1,0,9,1,16,6,0,24,0,Model,NYCDEP - Wards Island WPCP,NY0026131-027,-73.930967,40.794183,40.794183,-73.930967,"(40.794183, -73.930967)"
WI-028,East River,,1,1,19,1,21,12,0,31,1,unknown,NYCDEP - Wards Island WPCP,NY0026131-028,-73.93011857,40.79465741,40.79465741,-73.93011857,"(40.7946574143733, -73.9301185653751)"
WI-029,East River,,3,2,25,3,26,18,2,31,2,unknown,NYCDEP - Wards Island WPCP,NY0026131-029,-73.92980472,40.7951332,40.7951332,-73.92980472,"(40.7951332019475, -73.9298047172884)"
WI-030,East River,,2,1,21,1,22,12,1,30,1,Model,NYCDEP - Wards Island WPCP,NY0026131-030,-73.929224,40.795985,40.795985,-73.929224,"(40.795985, -73.929224)"
WI-031,East River,,5,6,24,7,25,20,5,33,6,Model,NYCDEP - Wards Island WPCP,NY0026131-031,-73.929067,40.796685,40.796685,-73.929067,"(40.796685, -73.929067)"
WI-032,East River,,0,0,8,0,17,5,0,25,0,Model,NYCDEP - Wards Island WPCP,NY0026131-032,-73.928991,40.797657,40.797657,-73.928991,"(40.797657, -73.928991)"
WI-033,East River,,4,4,22,5,24,14,3,33,4,Model,NYCDEP - Wards Island WPCP,NY0026131-033,-73.928975,40.798301,40.798301,-73.928975,"(40.798301, -73.928975)"
WI-034,East River,,1,1,20,1,22,12,1,30,1,Model,NYCDEP - Wards Island WPCP,NY0026131-034,-73.928912,40.799778,40.799778,-73.928912,"(40.799778, -73.928912)"
WI-035,East River,,8,8,24,10,27,19,6,35,8,Model,NYCDEP - Wards Island WPCP,NY0026131-035,-73.929038,40.801054,40.801054,-73.929038,"(40.801054, -73.929038)"
WI-036,Harlem River,,3,2,23,3,26,15,2,36,3,Model,NYCDEP - Wards Island WPCP,NY0026131-036,-73.931659,40.805535,40.805535,-73.931659,"(40.805535, -73.931659)"
WI-037,Harlem River,,9,8,26,10,27,20,7,37,8,Model,NYCDEP - Wards Island WPCP,NY0026131-037,-73.932992,40.806913,40.806913,-73.932992,"(40.806913, -73.932992)"
WI-038,Harlem River,,39,29,28,38,28,23,24,38,29,Monitoring,NYCDEP - Wards Island WPCP,NY0026131-038,-73.93421,40.811293,40.811293,-73.93421,"(40.811293, -73.93421)"
WI-039,Harlem River,,3,3,22,4,27,16,2,34,3,Model,NYCDEP - Wards Island WPCP,NY0026131-039,-73.933826,40.815715,40.815715,-73.933826,"(40.815715, -73.933826)"
WI-040,Harlem River,,3,2,25,3,26,18,2,35,2,Model,NYCDEP - Wards Island WPCP,NY0026131-040,-73.933809,40.816218,40.816218,-73.933809,"(40.816218, -73.933809)"
WI-041,Harlem River,,13,9,29,12,28,24,8,39,10,Model,NYCDEP - Wards Island WPCP,NY0026131-041,-73.933788,40.817009,40.817009,-73.933788,"(40.817009, -73.933788)"
WI-042,Harlem River,,3,2,27,3,26,19,2,37,2,Model,NYCDEP - Wards Island WPCP,NY0026131-042,-73.933789,40.81783,40.81783,-73.933789,"(40.81783, -73.933789)"
WI-043,East River,,7,5,31,6,31,20,4,43,5,Model,NYCDEP - Wards Island WPCP,NY0026131-043,-73.939225,40.785909,40.785909,-73.939225,"(40.785909, -73.939225)"
WI-044,Harlem River,,6,4,27,6,27,20,4,35,4,Model,NYCDEP - Wards Island WPCP,NY0026131-044,-73.933825,40.819498,40.819498,-73.933825,"(40.819498, -73.933825)"
WI-045,Harlem River,,63,49,36,62,35,33,39,41,46,Monitoring,NYCDEP - Wards Island WPCP,NY0026131-045,-73.934127,40.822713,40.822713,-73.934127,"(40.822713, -73.934127)"
WI-046,Harlem River,,158,163,40,192,41,42,125,41,147,Monitoring,NYCDEP - Wards Island WPCP,NY0026131-046,-73.934319,40.824793,40.824793,-73.934319,"(40.824793, -73.934319)"
WI-047,Harlem River,,23,23,42,25,40,41,17,44,19,Model,NYCDEP - Wards Island WPCP,NY0026131-047,-73.934486,40.827509,40.827509,-73.934486,"(40.827509, -73.934486)"
WI-048,Harlem River,,13,13,42,14,43,41,10,44,11,Model,NYCDEP - Wards Island WPCP,NY0026131-048,-73.934596,40.828212,40.828212,-73.934596,"(40.828212, -73.934596)"
WI-049,Harlem River,,69,76,36,95,40,37,56,37,65,unknown,NYCDEP - Wards Island WPCP,NY0026131-049,-73.93315969,40.82892217,40.82892217,-73.93315969,"(40.8289221736426, -73.9331596864602)"
WI-050,Harlem River,,69,19,40,20,45,41,13,42,15,Model,NYCDEP - Wards Island WPCP,NY0026131-050,-73.934538,40.82885,40.82885,-73.934538,"(40.82885, -73.934538)"
WI-051,Harlem River,,21,22,33,28,39,31,16,37,19,Monitoring,NYCDEP - Wards Island WPCP,NY0026131-051,-73.933912,40.837179,40.837179,-73.933912,"(40.837179, -73.933912)"
WI-052,Harlem River,,48,44,42,52,45,41,33,45,36,Monitoring,NYCDEP - Wards Island WPCP,NY0026131-052,-73.930618,40.84326,40.84326,-73.930618,"(40.84326, -73.930618)"
WI-053,Hudson River,,30,65,64,72,78,58,46,65,44,Model,NYCDEP - Wards Island WPCP,NY0026131-053,-73.913893,40.904976,40.904976,-73.913893,"(40.904976, -73.913893)"
WI-054,Hudson River,,28,47,47,54,56,45,31,49,29,Model,NYCDEP - Wards Island WPCP,NY0026131-054,-73.916723,40.897462,40.897462,-73.916723,"(40.897462, -73.916723)"
WI-055,Hudson River,,9,24,51,27,67,48,17,55,15,Model,NYCDEP - Wards Island WPCP,NY0026131-055,-73.920024,40.888493,40.888493,-73.920024,"(40.888493, -73.920024)"
WI-056,Harlem River,,1543,1065,54,1200,63,51,793,41,735,Monitoring,NYCDEP - Wards Island WPCP,NY0026131-056,-73.909135,40.87025,40.87025,-73.909135,"(40.87025, -73.909135)"
WI-057,Harlem River,,179,183,53,211,64,51,141,45,136,Monitoring,NYCDEP - Wards Island WPCP,NY0026131-057,-73.912536,40.86308,40.86308,-73.912536,"(40.86308, -73.912536)"
WI-058,Harlem River,,50,48,36,60,41,38,36,38,45,Model,NYCDEP - Wards Island WPCP,NY0026131-058,-73.920327,40.855805,40.855805,-73.920327,"(40.855805, -73.920327)"
WI-059,Harlem River,,5,10,18,13,23,18,7,26,7,Model,NYCDEP - Wards Island WPCP,NY0026131-059,-73.924224,40.850635,40.850635,-73.924224,"(40.850635, -73.924224)"
WI-060,Harlem River,,228,363,37,451,44,39,269,40,295,Monitoring,NYCDEP - Wards Island WPCP,NY0026131-060,-73.929176,40.842902,40.842902,-73.929176,"(40.842902, -73.929176)"
WI-061,Harlem River,,2,5,13,10,18,12,4,21,7,Model,NYCDEP - Wards Island WPCP,NY0026131-061,-73.930475,40.840386,40.840386,-73.930475,"(40.840386, -73.930475)"
WI-062,Harlem River,,175,156,35,192,35,36,128,37,154,Monitoring,NYCDEP - Wards Island WPCP,NY0026131-062,-73.933153,40.828339,40.828339,-73.933153,"(40.828339, -73.933153)"
WI-063,Harlem River,,13,12,23,14,23,21,11,35,12,Model,NYCDEP - Wards Island WPCP,NY0026131-063,-73.9331,40.827913,40.827913,-73.9331,"(40.827913, -73.9331)"
WI-064,Harlem River,,43,34,26,43,11,22,31,35,38,Model,NYCDEP - Wards Island WPCP,NY0026131-064,-73.932511,40.819676,40.819676,-73.932511,"(40.819676, -73.932511)"
WI-065,Harlem River,,5,2,16,3,21,14,3,33,4,Model,NYCDEP - Wards Island WPCP,NY0026131-065,-73.932813,40.810433,40.810433,-73.932813,"(40.810433, -73.932813)"
WI-066,Harlem River,,2,2,12,2,17,13,1,23,2,Model,NYCDEP - Wards Island WPCP,NY0026131-066,-73.931844,40.807988,40.807988,-73.931844,"(40.807988, -73.931844)"
WI-067,Harlem River,,13,12,20,17,21,17,11,35,16,Model,NYCDEP - Wards Island WPCP,NY0026131-067,-73.930418,40.806531,40.806531,-73.930418,"(40.806531, -73.930418)"
WI-068,Bronx Kills,,222,0,5,0,5,29,127,41,227,Monitoring,NYCDEP - Wards Island WPCP,NY0026131-068,-73.92299,40.802433,40.802433,-73.92299,"(40.802433, -73.92299)"
WI-069,Bronk Kills,,0,0,2,0,3,1,0,5,0,Model,NYCDEP - Wards Island WPCP,NY0026131-069,-73.919256,40.799084,40.799084,-73.919256,"(40.799084, -73.919256)"
WI-070,East River,,11,12,28,15,27,23,10,38,13,Model,NYCDEP - Wards Island WPCP,NY0026131-070,-73.908344,40.798985,40.798985,-73.908344,"(40.798985, -73.908344)"
WI-071,East River,,29,25,25,2,24,23,21,37,28,Model,NYCDEP - Wards Island WPCP,NY0026131-071,-73.906184,40.801458,40.801458,-73.906184,"(40.801458, -73.906184)"
WI-072,East River,,46,106,32,139,29,25,38,38,52,Monitoring,NYCDEP - Wards Island WPCP,NY0026131-072,-73.902216,40.804945,40.804945,-73.902216,"(40.804945, -73.902216)"
WI-073,Bronx Kills,,11,1,4,1,7,8,3,28,4,Model,NYCDEP - Wards Island WPCP,NY0026131-073,-73.921727,40.801603,40.801603,-73.921727,"(40.801603, -73.921727)"
WI-075,Harlem River,,123,106,29,139,29,28,94,36,119,Monitoring,NYCDEP - Wards Island WPCP,NY0026131-075,-73.932427,40.813955,40.813955,-73.932427,"(40.813955, -73.932427)"
WI-076,Harlem River,,43,76,45,82,48,43,54,42,44,Model,NYCDEP - Wards Island WPCP,NY0026131-076,-73.922483,40.878621,40.878621,-73.922483,"(40.878621, -73.922483)"
WI-077,Harlem River,,77,108,37,129,44,41,80,36,68,Model,NYCDEP - Wards Island WPCP,NY0026131-077,-73.916069,40.875672,40.875672,-73.916069,"(40.875672, -73.916069)"
WI-078,Harlem River,,0,42,40,47,47,43,31,41,24,Model,NYCDEP - Wards Island WPCP,NY0026131-078,-73.910978,40.874169,40.874169,-73.910978,"(40.874169, -73.910978)"
WI-079,Hudson River,,0,,,,,,,,,Model,NYCDEP - Wards Island WPCP,NY0026131-079,-73.910656,40.914862,40.914862,-73.910656,"(40.914862, -73.910656)"